{
  "type": "FeatureCollection",
  "features": [
    {
      "type": "Feature",
      "properties": {
        "norad_id": 66575,
        "name": "STARLINK-35810",
        "group": "last-30-days",
        "lat": -42.87686257007603,
        "lon": -52.26810600075545,
        "alt_km": 450.62724094769055,
        "timestamp": "2025-12-26T03:50:10.805253+00:00",
        "meta_object_name": "STARLINK-35810",
        "meta_object_id": "2025-268U",
        "meta_epoch": "2025-12-25T20:00:01.999008",
        "meta_mean_motion": 15.40805036,
        "meta_eccentricity": 0.0001009,
        "meta_inclination": 43.0006,
        "meta_ra_of_asc_node": 44.4855,
        "meta_arg_of_pericenter": 280.5888,
        "meta_mean_anomaly": 333.548,
        "meta_ephemeris_type": 0,
        "meta_classification_type": "U",
        "meta_norad_cat_id": 66575,
        "meta_element_set_no": 999,
        "meta_rev_at_epoch": 611,
        "meta_bstar": -0.054917,
        "meta_mean_motion_dot": -0.02044292,
        "meta_mean_motion_ddot": 0,
        "tle_line1": "1 66575U 25268U   25359.83335647 -.02044292  00000+0 -54917-1 0  9996",
        "tle_line2": "2 66575  43.0006  44.4855 0001009 280.5888 333.5480 15.40805036  6119"
      },
      "geometry": {
        "type": "Point",
        "coordinates": [
          -52.26810600075545,
          -42.87686257007603
        ]
      }
    },
    {
      "type": "Feature",
      "properties": {
        "norad_id": 66576,
        "name": "STARLINK-35814",
        "group": "last-30-days",
        "lat": -42.251802080478335,
        "lon": -34.54011544839592,
        "alt_km": 448.08297361167297,
        "timestamp": "2025-12-26T03:50:10.805264+00:00",
        "meta_object_name": "STARLINK-35814",
        "meta_object_id": "2025-268V",
        "meta_epoch": "2025-12-25T20:00:01.999008",
        "meta_mean_motion": 15.41641954,
        "meta_eccentricity": 0.0001007,
        "meta_inclination": 43.0003,
        "meta_ra_of_asc_node": 44.4557,
        "meta_arg_of_pericenter": 278.6922,
        "meta_mean_anomaly": 347.5458,
        "meta_ephemeris_type": 0,
        "meta_classification_type": "U",
        "meta_norad_cat_id": 66576,
        "meta_element_set_no": 999,
        "meta_rev_at_epoch": 611,
        "meta_bstar": -0.053354,
        "meta_mean_motion_dot": -0.02042996,
        "meta_mean_motion_ddot": 0,
        "tle_line1": "1 66576U 25268V   25359.83335647 -.02042996  00000+0 -53354-1 0  9990",
        "tle_line2": "2 66576  43.0003  44.4557 0001007 278.6922 347.5458 15.41641954  6119"
      },
      "geometry": {
        "type": "Point",
        "coordinates": [
          -34.54011544839592,
          -42.251802080478335
        ]
      }
    },
    {
      "type": "Feature",
      "properties": {
        "norad_id": 66577,
        "name": "STARLINK-35815",
        "group": "last-30-days",
        "lat": -36.42463086058566,
        "lon": -9.837380821541288,
        "alt_km": 443.6224468775108,
        "timestamp": "2025-12-26T03:50:10.805274+00:00",
        "meta_object_name": "STARLINK-35815",
        "meta_object_id": "2025-268W",
        "meta_epoch": "2025-12-25T20:00:01.999008",
        "meta_mean_motion": 15.43086591,
        "meta_eccentricity": 0.0001091,
        "meta_inclination": 43.0006,
        "meta_ra_of_asc_node": 44.4103,
        "meta_arg_of_pericenter": 261.7873,
        "meta_mean_anomaly": 22.6892,
        "meta_ephemeris_type": 0,
        "meta_classification_type": "U",
        "meta_norad_cat_id": 66577,
        "meta_element_set_no": 999,
        "meta_rev_at_epoch": 611,
        "meta_bstar": -0.050353,
        "meta_mean_motion_dot": -0.02026909,
        "meta_mean_motion_ddot": 0,
        "tle_line1": "1 66577U 25268W   25359.83335647 -.02026909  00000+0 -50353-1 0  9993",
        "tle_line2": "2 66577  43.0006  44.4103 0001091 261.7873  22.6892 15.43086591  6116"
      },
      "geometry": {
        "type": "Point",
        "coordinates": [
          -9.837380821541288,
          -36.42463086058566
        ]
      }
    },
    {
      "type": "Feature",
      "properties": {
        "norad_id": 66578,
        "name": "STARLINK-35743",
        "group": "last-30-days",
        "lat": -30.983792924934825,
        "lon": 2.375570856002779,
        "alt_km": 440.8692235860781,
        "timestamp": "2025-12-26T03:50:10.805286+00:00",
        "meta_object_name": "STARLINK-35743",
        "meta_object_id": "2025-268X",
        "meta_epoch": "2025-12-25T20:00:01.999008",
        "meta_mean_motion": 15.43935041,
        "meta_eccentricity": 9.47e-05,
        "meta_inclination": 43.0007,
        "meta_ra_of_asc_node": 44.3832,
        "meta_arg_of_pericenter": 286.341,
        "meta_mean_anomaly": 8.7026,
        "meta_ephemeris_type": 0,
        "meta_classification_type": "U",
        "meta_norad_cat_id": 66578,
        "meta_element_set_no": 999,
        "meta_rev_at_epoch": 606,
        "meta_bstar": -0.04981,
        "meta_mean_motion_dot": -0.0205978,
        "meta_mean_motion_ddot": 0,
        "tle_line1": "1 66578U 25268X   25359.83335647 -.02059780  00000+0 -49810-1 0  9993",
        "tle_line2": "2 66578  43.0007  44.3832 0000947 286.3410   8.7026 15.43935041  6066"
      },
      "geometry": {
        "type": "Point",
        "coordinates": [
          2.375570856002779,
          -30.983792924934825
        ]
      }
    },
    {
      "type": "Feature",
      "properties": {
        "norad_id": 66579,
        "name": "STARLINK-35868",
        "group": "last-30-days",
        "lat": -24.844671416832508,
        "lon": 12.674782748806566,
        "alt_km": 438.12394463682176,
        "timestamp": "2025-12-26T03:50:10.805299+00:00",
        "meta_object_name": "STARLINK-35868",
        "meta_object_id": "2025-268Y",
        "meta_epoch": "2025-12-25T20:00:01.999008",
        "meta_mean_motion": 15.44777522,
        "meta_eccentricity": 8.95e-05,
        "meta_inclination": 43.0006,
        "meta_ra_of_asc_node": 44.3587,
        "meta_arg_of_pericenter": 281.9718,
        "meta_mean_anomaly": 23.0795,
        "meta_ephemeris_type": 0,
        "meta_classification_type": "U",
        "meta_norad_cat_id": 66579,
        "meta_element_set_no": 999,
        "meta_rev_at_epoch": 606,
        "meta_bstar": -0.048607,
        "meta_mean_motion_dot": -0.0206805,
        "meta_mean_motion_ddot": 0,
        "tle_line1": "1 66579U 25268Y   25359.83335647 -.02068050  00000+0 -48607-1 0  9997",
        "tle_line2": "2 66579  43.0006  44.3587 0000895 281.9718  23.0795 15.44777522  6069"
      },
      "geometry": {
        "type": "Point",
        "coordinates": [
          12.674782748806566,
          -24.844671416832508
        ]
      }
    },
    {
      "type": "Feature",
      "properties": {
        "norad_id": 66580,
        "name": "STARLINK-35872",
        "group": "last-30-days",
        "lat": -18.421916971406258,
        "lon": 21.49957612317025,
        "alt_km": 435.39082598615005,
        "timestamp": "2025-12-26T03:50:10.805310+00:00",
        "meta_object_name": "STARLINK-35872",
        "meta_object_id": "2025-268Z",
        "meta_epoch": "2025-12-25T20:00:01.999008",
        "meta_mean_motion": 15.4561854,
        "meta_eccentricity": 0.0001082,
        "meta_inclination": 43.0007,
        "meta_ra_of_asc_node": 44.3358,
        "meta_arg_of_pericenter": 263.0491,
        "meta_mean_anomaly": 51.4479,
        "meta_ephemeris_type": 0,
        "meta_classification_type": "U",
        "meta_norad_cat_id": 66580,
        "meta_element_set_no": 999,
        "meta_rev_at_epoch": 595,
        "meta_bstar": -0.047432,
        "meta_mean_motion_dot": -0.02076637,
        "meta_mean_motion_ddot": 0,
        "tle_line1": "1 66580U 25268Z   25359.83335647 -.02076637  00000+0 -47432-1 0  9994",
        "tle_line2": "2 66580  43.0007  44.3358 0001082 263.0491  51.4479 15.45618540  5952"
      },
      "geometry": {
        "type": "Point",
        "coordinates": [
          21.49957612317025,
          -18.421916971406258
        ]
      }
    },
    {
      "type": "Feature",
      "properties": {
        "norad_id": 66581,
        "name": "STARLINK-35744",
        "group": "last-30-days",
        "lat": -11.998682674819518,
        "lon": 29.233928619108728,
        "alt_km": 432.34509342119964,
        "timestamp": "2025-12-26T03:50:10.805321+00:00",
        "meta_object_name": "STARLINK-35744",
        "meta_object_id": "2025-268AA",
        "meta_epoch": "2025-12-25T20:00:01.999008",
        "meta_mean_motion": 15.46445082,
        "meta_eccentricity": 0.0001282,
        "meta_inclination": 43.0011,
        "meta_ra_of_asc_node": 44.3133,
        "meta_arg_of_pericenter": 268.0563,
        "meta_mean_anomaly": 55.329,
        "meta_ephemeris_type": 0,
        "meta_classification_type": "U",
        "meta_norad_cat_id": 66581,
        "meta_element_set_no": 999,
        "meta_rev_at_epoch": 589,
        "meta_bstar": -0.046052,
        "meta_mean_motion_dot": -0.02075335,
        "meta_mean_motion_ddot": 0,
        "tle_line1": "1 66581U 25268AA  25359.83335647 -.02075335  00000+0 -46052-1 0  9996",
        "tle_line2": "2 66581  43.0011  44.3133 0001282 268.0563  55.3290 15.46445082  5893"
      },
      "geometry": {
        "type": "Point",
        "coordinates": [
          29.233928619108728,
          -11.998682674819518
        ]
      }
    }
  ]
}